{
  "type": "FeatureCollection",
  "features": [
    {
      "type": "Feature",
      "properties": {
        "norad_id": 66760,
        "name": "TRANSPORTER-15CY",
        "group": "last-30-days",
        "lat": -24.005973020038947,
        "lon": -112.47318132775372,
        "alt_km": 516.8791045146754,
        "timestamp": "2025-12-25T07:00:32.763800+00:00",
        "meta_object_name": "TRANSPORTER-15CY",
        "meta_object_id": "2025-276CY",
        "meta_epoch": "2025-12-24T20:37:19.751232",
        "meta_mean_motion": 15.18215472,
        "meta_eccentricity": 0.00017909,
        "meta_inclination": 97.4395,
        "meta_ra_of_asc_node": 70.4374,
        "meta_arg_of_pericenter": 112.4227,
        "meta_mean_anomaly": 247.7197,
        "meta_ephemeris_type": 0,
        "meta_classification_type": "U",
        "meta_norad_cat_id": 66760,
        "meta_element_set_no": 999,
        "meta_rev_at_epoch": 396,
        "meta_bstar": 0.00048439288,
        "meta_mean_motion_dot": 9.849e-05,
        "meta_mean_motion_ddot": 0,
        "tle_line1": "1 66760U 25276CY  25358.85925638  .00009849  00000+0  48439-3 0  9996",
        "tle_line2": "2 66760  97.4395  70.4374 0001790 112.4227 247.7197 15.18215472  3966"
      },
      "geometry": {
        "type": "Point",
        "coordinates": [
          -112.47318132775372,
          -24.005973020038947
        ]
      }
    },
    {
      "type": "Feature",
      "properties": {
        "norad_id": 66761,
        "name": "TRANSPORTER-15CZ",
        "group": "last-30-days",
        "lat": -40.151043711108336,
        "lon": -115.4587461576677,
        "alt_km": 517.0916534931148,
        "timestamp": "2025-12-25T07:00:32.763811+00:00",
        "meta_object_name": "TRANSPORTER-15CZ",
        "meta_object_id": "2025-276CZ",
        "meta_epoch": "2025-12-24T20:33:08.433504",
        "meta_mean_motion": 15.18516199,
        "meta_eccentricity": 0.00017581,
        "meta_inclination": 97.4393,
        "meta_ra_of_asc_node": 70.4412,
        "meta_arg_of_pericenter": 121.9375,
        "meta_mean_anomaly": 238.203,
        "meta_ephemeris_type": 0,
        "meta_classification_type": "U",
        "meta_norad_cat_id": 66761,
        "meta_element_set_no": 999,
        "meta_rev_at_epoch": 396,
        "meta_bstar": 0.00053578987,
        "meta_mean_motion_dot": 0.00010998,
        "meta_mean_motion_ddot": 0,
        "tle_line1": "1 66761U 25276CZ  25358.85634761  .00010998  00000+0  53579-3 0  9999",
        "tle_line2": "2 66761  97.4393  70.4412 0001758 121.9375 238.2030 15.18516199  3962"
      },
      "geometry": {
        "type": "Point",
        "coordinates": [
          -115.4587461576677,
          -40.151043711108336
        ]
      }
    },
    {
      "type": "Feature",
      "properties": {
        "norad_id": 66762,
        "name": "HYDROGNSS-1",
        "group": "last-30-days",
        "lat": 55.36735858881235,
        "lon": -98.26098662166184,
        "alt_km": 509.01743752665425,
        "timestamp": "2025-12-25T07:00:32.763821+00:00",
        "meta_object_name": "HYDROGNSS-1",
        "meta_object_id": "2025-276DA",
        "meta_epoch": "2025-12-24T20:58:06.839328",
        "meta_mean_motion": 15.17319152,
        "meta_eccentricity": 9.694e-05,
        "meta_inclination": 97.4405,
        "meta_ra_of_asc_node": 70.4214,
        "meta_arg_of_pericenter": 244.1393,
        "meta_mean_anomaly": 115.974,
        "meta_ephemeris_type": 0,
        "meta_classification_type": "U",
        "meta_norad_cat_id": 66762,
        "meta_element_set_no": 999,
        "meta_rev_at_epoch": 396,
        "meta_bstar": 0.00044682772,
        "meta_mean_motion_dot": 8.847e-05,
        "meta_mean_motion_ddot": 0,
        "tle_line1": "1 66762U 25276DA  25358.87369027  .00008847  00000+0  44683-3 0  9998",
        "tle_line2": "2 66762  97.4405  70.4214 0000969 244.1393 115.9740 15.17319152  3966"
      },
      "geometry": {
        "type": "Point",
        "coordinates": [
          -98.26098662166184,
          55.36735858881235
        ]
      }
    },
    {
      "type": "Feature",
      "properties": {
        "norad_id": 66763,
        "name": "HYDROGNSS-2",
        "group": "last-30-days",
        "lat": 43.47882141849495,
        "lon": -102.03909699401386,
        "alt_km": 509.988916073391,
        "timestamp": "2025-12-25T07:00:32.763834+00:00",
        "meta_object_name": "HYDROGNSS-2",
        "meta_object_id": "2025-276DB",
        "meta_epoch": "2025-12-24T19:20:00.313152",
        "meta_mean_motion": 15.17440251,
        "meta_eccentricity": 0.00015785,
        "meta_inclination": 97.4409,
        "meta_ra_of_asc_node": 70.3639,
        "meta_arg_of_pericenter": 227.3073,
        "meta_mean_anomaly": 132.8028,
        "meta_ephemeris_type": 0,
        "meta_classification_type": "U",
        "meta_norad_cat_id": 66763,
        "meta_element_set_no": 999,
        "meta_rev_at_epoch": 395,
        "meta_bstar": 0.00021084987,
        "meta_mean_motion_dot": 4.152e-05,
        "meta_mean_motion_ddot": 0,
        "tle_line1": "1 66763U 25276DB  25358.80555918  .00004152  00000+0  21085-3 0  9994",
        "tle_line2": "2 66763  97.4409  70.3639 0001578 227.3073 132.8028 15.17440251  3957"
      },
      "geometry": {
        "type": "Point",
        "coordinates": [
          -102.03909699401386,
          43.47882141849495
        ]
      }
    },
    {
      "type": "Feature",
      "properties": {
        "norad_id": 66764,
        "name": "TRANSPORTER-15DC",
        "group": "last-30-days",
        "lat": 17.532188984144664,
        "lon": -106.78686562402156,
        "alt_km": 511.91188632342437,
        "timestamp": "2025-12-25T07:00:32.763844+00:00",
        "meta_object_name": "TRANSPORTER-15DC",
        "meta_object_id": "2025-276DC",
        "meta_epoch": "2025-12-24T20:48:09.499104",
        "meta_mean_motion": 15.17707246,
        "meta_eccentricity": 0.00021635,
        "meta_inclination": 97.4403,
        "meta_ra_of_asc_node": 70.4291,
        "meta_arg_of_pericenter": 185.8635,
        "meta_mean_anomaly": 174.2574,
        "meta_ephemeris_type": 0,
        "meta_classification_type": "U",
        "meta_norad_cat_id": 66764,
        "meta_element_set_no": 999,
        "meta_rev_at_epoch": 396,
        "meta_bstar": 0.00042737397,
        "meta_mean_motion_dot": 8.554e-05,
        "meta_mean_motion_ddot": 0,
        "tle_line1": "1 66764U 25276DC  25358.86677661  .00008554  00000+0  42737-3 0  9998",
        "tle_line2": "2 66764  97.4403  70.4291 0002163 185.8635 174.2574 15.17707246  3967"
      },
      "geometry": {
        "type": "Point",
        "coordinates": [
          -106.78686562402156,
          17.532188984144664
        ]
      }
    },
    {
      "type": "Feature",
      "properties": {
        "norad_id": 66765,
        "name": "TRANSPORTER-15DD",
        "group": "last-30-days",
        "lat": -60.22474972791947,
        "lon": -122.32003995478999,
        "alt_km": 517.4899947439617,
        "timestamp": "2025-12-25T07:00:32.763856+00:00",
        "meta_object_name": "TRANSPORTER-15DD",
        "meta_object_id": "2025-276DD",
        "meta_epoch": "2025-12-24T22:02:42.323424",
        "meta_mean_motion": 15.18780908,
        "meta_eccentricity": 0.00020153,
        "meta_inclination": 97.4417,
        "meta_ra_of_asc_node": 70.5186,
        "meta_arg_of_pericenter": 116.2471,
        "meta_mean_anomaly": 243.8971,
        "meta_ephemeris_type": 0,
        "meta_classification_type": "U",
        "meta_norad_cat_id": 66765,
        "meta_element_set_no": 999,
        "meta_rev_at_epoch": 397,
        "meta_bstar": 0.00064423093,
        "meta_mean_motion_dot": 0.00013343,
        "meta_mean_motion_ddot": 0,
        "tle_line1": "1 66765U 25276DD  25358.91854541  .00013343  00000+0  64423-3 0  9997",
        "tle_line2": "2 66765  97.4417  70.5186 0002015 116.2471 243.8971 15.18780908  3971"
      },
      "geometry": {
        "type": "Point",
        "coordinates": [
          -122.32003995478999,
          -60.22474972791947
        ]
      }
    },
    {
      "type": "Feature",
      "properties": {
        "norad_id": 66766,
        "name": "TRANSPORTER-15DE",
        "group": "last-30-days",
        "lat": -42.76755373790989,
        "lon": -116.07916747610402,
        "alt_km": 518.2762168652907,
        "timestamp": "2025-12-25T07:00:32.763868+00:00",
        "meta_object_name": "TRANSPORTER-15DE",
        "meta_object_id": "2025-276DE",
        "meta_epoch": "2025-12-24T22:07:18.030144",
        "meta_mean_motion": 15.18435221,
        "meta_eccentricity": 0.00020379,
        "meta_inclination": 97.4358,
        "meta_ra_of_asc_node": 70.4952,
        "meta_arg_of_pericenter": 87.4931,
        "meta_mean_anomaly": 272.6537,
        "meta_ephemeris_type": 0,
        "meta_classification_type": "U",
        "meta_norad_cat_id": 66766,
        "meta_element_set_no": 999,
        "meta_rev_at_epoch": 397,
        "meta_bstar": 0.00034589953,
        "meta_mean_motion_dot": 7.056e-05,
        "meta_mean_motion_ddot": 0,
        "tle_line1": "1 66766U 25276DE  25358.92173646  .00007056  00000+0  34590-3 0  9995",
        "tle_line2": "2 66766  97.4358  70.4952 0002037  87.4931 272.6537 15.18435221  3973"
      },
      "geometry": {
        "type": "Point",
        "coordinates": [
          -116.07916747610402,
          -42.76755373790989
        ]
      }
    }
  ]
}